[Satellite]
VERSION=1.1
NAME=LEMUR-2-XIAOQING
NICKNAME=LEMUR-2-XIAOQING
TLE1=1 41871U 16062C   18020.77463228  .00002876  00000-0  13182-3 0  9997
TLE2=2 41871  51.6418 132.3361 0002093 296.6252  63.4505 15.23724046 64101
